[{"OBJECT_NAME":"STARLINK-30596","OBJECT_ID":"2023-161P","EPOCH":"2026-03-09T13:10:54.120000","MEAN_MOTION":15.3018532,"ECCENTRICITY":9.531e-5,"INCLINATION":53.1581,"RA_OF_ASC_NODE":165.9283,"ARG_OF_PERICENTER":81.4219,"MEAN_ANOMALY":278.689,"EPHEMERIS_TYPE":0,"CLASSIFICATION_TYPE":"U","NORAD_CAT_ID":58110,"ELEMENT_SET_NO":999,"REV_AT_EPOCH":13440,"BSTAR":6.5109136e-5,"MEAN_MOTION_DOT":1.569e-5,"MEAN_MOTION_DDOT":0},{"OBJECT_NAME":"FENGYUN 1C DEB","OBJECT_ID":"1999-025BZU","EPOCH":"2026-03-09T17:19:51.665664","MEAN_MOTION":15.28412118,"ECCENTRICITY":0.00188802,"INCLINATION":98.9598,"RA_OF_ASC_NODE":354.2029,"ARG_OF_PERICENTER":82.3682,"MEAN_ANOMALY":277.9697,"EPHEMERIS_TYPE":0,"CLASSIFICATION_TYPE":"U","NORAD_CAT_ID":31614,"ELEMENT_SET_NO":999,"REV_AT_EPOCH":97742,"BSTAR":0.011500831,"MEAN_MOTION_DOT":0.0033373,"MEAN_MOTION_DDOT":0}]
